GPS BIIR-2  (PRN 13)    
1 24876C 97035A   22246.82645833 -.00000000  00000-0  00000-0 0  2462
2 24876  55.5194 152.6176 0061960  52.0739  83.4908  2.00562884    12
GPS BIIR-4  (PRN 20)    
1 26360C 00025A   22246.82645833 -.00000000  00000-0  00000-0 0  2465
2 26360  54.1218  75.6303 0047969 184.9918  41.0193  2.00566763    13
GPS BIIR-6  (PRN 22)    
1 26605C 00071A   22246.82645833 -.00000000  00000-0  00000-0 0  2468
2 26605  55.1041 149.5766 0136632 254.5712  97.6148  2.00556110    18
GPS BIIR-8  (PRN 16)    
1 27663C 03005A   22246.82645833  .00000000  00000-0  00000-0 0  2462
2 27663  55.4613 269.9485 0125798  41.0511 162.8366  2.00559985    13
GPS BIIR-9  (PRN 21)    
1 27704C 03010A   22246.82645833 -.00000000  00000-0  00000-0 0  2465
2 27704  55.0518  20.1376 0244515 307.9929 111.2725  2.00559395    13
GPS BIIR-11 (PRN 19)    
1 28190C 04009A   22246.82645833  .00000000  00000-0  00000-0 0  2463
2 28190  55.9549 330.9526 0089904 124.8113 233.7916  2.00558607    12
GPS BIIR-13 (PRN 02)    
1 28474C 04045A   22246.82645833 -.00000000  00000-0  00000-0 0  2469
2 28474  55.3777  20.3058 0201895 279.7725 323.8522  2.00421863    15
GPS BIIRM-1 (PRN 17)    
1 28874C 05038A   22246.82645833  .00000000  00000-0  00000-0 0  2465
2 28874  56.0179 328.3903 0139232 274.9138 109.7906  2.00571233    17
GPS BIIRM-2 (PRN 31)    
1 29486C 06042A   22246.82645833  .00000000  00000-0  00000-0 0  2461
2 29486  54.7109 206.1592 0104068  22.8753 274.5963  2.00574380    14
GPS BIIRM-3 (PRN 12)    
1 29601C 06052A   22246.82645833  .00000000  00000-0  00000-0 0  2461
2 29601  55.4707 268.8899 0082534  74.9362 264.7567  2.00555272    17
GPS BIIRM-4 (PRN 15)    
1 32260C 07047A   22246.82645833 -.00000000  00000-0  00000-0 0  2462
2 32260  53.3329 137.2973 0142936  64.2158  53.3601  2.00570289    15
GPS BIIRM-5 (PRN 29)    
1 32384C 07062A   22246.82645833  .00000000  00000-0  00000-0 0  2465
2 32384  56.1391 329.1618 0020964 144.2271 100.2459  2.00566350    18
GPS BIIRM-6 (PRN 07)    
1 32711C 08012A   22246.82645833  .00000000  00000-0  00000-0 0  2465
2 32711  54.4722 205.0763 0165801 231.9067 303.3758  2.00566853    17
GPS BIIRM-8 (PRN 05)    
1 35752C 09043A   22246.82645833 -.00000000  00000-0  00000-0 0  2469
2 35752  55.1306  82.3739 0059045  62.0959 127.2332  2.00551421    11
GPS BIIF-1  (PRN 25)    
1 36585C 10022A   22246.82645833  .00000000  00000-0  00000-0 0  2462
2 36585  54.7566 264.3540 0102966  56.7330 253.6482  2.00569290    18
GPS BIIF-2  (PRN 01)    
1 37753C 11036A   22246.82645833 -.00000000  00000-0  00000-0 0  2467
2 37753  56.6404  25.6565 0118476  53.3881 340.8270  2.00565575    16
GPS BIIF-3  (PRN 24)    
1 38833C 12053A   22246.82645833  .00000000  00000-0  00000-0 0  2466
2 38833  53.5281 200.1424 0127633  47.0538 359.5956  2.00562383    15
GPS BIIF-4  (PRN 27)    
1 39166C 13023A   22246.82645833  .00000000  00000-0  00000-0 0  2464
2 39166  55.6420 324.7321 0104146  38.5261 110.1556  2.00565389    10
GPS BIIF-5  (PRN 30)    
1 39533C 14008A   22246.82645833  .00000000  00000-0  00000-0 0  2466
2 39533  53.6208 205.6565 0060664 209.8669 296.3289  2.00557520    16
GPS BIIF-6  (PRN 06)    
1 39741C 14026A   22246.82645833 -.00000000  00000-0  00000-0 0  2468
2 39741  56.6010  25.1822 0026406 304.7587 357.3088  2.00550133    10
GPS BIIF-7  (PRN 09)    
1 40105C 14045A   22246.82645833 -.00000000  00000-0  00000-0 0  2465
2 40105  54.7069 143.6769 0022225 111.0811 132.2833  2.00552401    17
GPS BIIF-8  (PRN 03)    
1 40294C 14068A   22246.82645833 -.00000000  00000-0  00000-0 0  2469
2 40294  55.8740  84.8404 0042830  58.4360 278.4070  2.00577068    15
GPS BIIF-9  (PRN 26)    
1 40534C 15013A   22246.82645833  .00000000  00000-0  00000-0 0  2466
2 40534  53.6575 261.4480 0070480  20.1842 210.9103  2.00547444    17
GPS BIIF-10 (PRN 08)    
1 40730C 15033A   22246.82645833  .00000000  00000-0  00000-0 0  2466
2 40730  55.1385 323.5235 0074332   7.6844 110.0109  2.00574107    13
GPS BIIF-11 (PRN 10)    
1 41019C 15062A   22246.82645833 -.00000000  00000-0  00000-0 0  2460
2 41019  55.8618  84.6850 0080060 217.3285 225.0551  2.00562610    16
GPS BIIF-12 (PRN 32)    
1 41328C 16007A   22246.82645833 -.00000000  00000-0  00000-0 0  2463
2 41328  54.9224 144.3671 0062495 230.1549 148.3143  2.00567016    14
GPS BIII-1  (PRN 04)    
1 43873C 18109A   22246.82645833 -.00000000  00000-0  00000-0 0  2465
2 43873  55.1015 146.8031 0020123 190.0149  82.8507  2.00553466    11
GPS BIII-2  (PRN 18)    
1 44506C 19056A   22246.82645833 -.00000000  00000-0  00000-0 0  2461
2 44506  55.7147  25.9353 0027779 179.4571 353.2642  2.00557806    12
GPS BIII-3  (PRN 23)    
1 45854C 20041A   22246.82645833 -.00000000  00000-0  00000-0 0  2464
2 45854  55.5811  83.2028 0025803 177.1183 292.1615  2.00557602    16
GPS BIII-4  (PRN 14)    
1 46826C 20078A   22246.82645833  .00000000  00000-0  00000-0 0  2463
2 46826  54.5185 266.9148 0022904 191.5486 254.8588  2.00565074    13
GPS BIII-5  (PRN 11)    
1 48859C 21054A   22246.82645833 -.00000000  00000-0  00000-0 0  2467
2 48859  55.2221  27.8966 0007176 193.9955  77.3193  2.00568609    10
